LocationName|PermitNumber|LocationGridRef|X|Y|LATITUDE|LONGITUDE|ReceivingWaterCourse|AlertStatus|AlertPast48Hours|MostRecentDischargeAlertStart|MostRecentDischargeAlertStop
(Northern) Low Level No 1 Brook Green|CSAB.0535|TQ23047815|523040|178150|51.48892120401|-0.229225003085766|River Thames|Not discharging|False|2022-09-13T16:08:00|2022-09-13T16:18:00
15 Coldharbour Lane, Bushey|TEMP.2331|TQ13909538|513900|195380|51.6456916872044|-0.355230840466582|Colne Brook|Not discharging|None|None|None
Abbess Roding|CTCR.2034|TL57581109|557580|211090|51.7762984340985|0.282697693679463|Coopers Brook|Not discharging|True|2023-04-02T21:30:00|2023-04-02T22:00:00
Abbey Mills|CSAB.0530|TQ38858314|538850|183140|51.5301037861073|0.000311783554430522|River Lee (Channelsea River South)|Not discharging|False|None|None
Abingdon|CTCR.1804|SU49339509|449330|195090|51.6524446114114|-1.28835643493025|Odhay Hill Ditch|Not discharging|True|2023-04-03T19:15:00|2023-04-04T00:00:00
Acton & Storm Works|TEMP.0312|TQ212800|521200|180000|51.505944684601|-0.255078699159893|River Thames|Not discharging|False|2023-03-31T13:58:00|2023-04-01T01:32:00
Aldermaston|TEMP.2345|SU59126551|459120|165510|51.385564967207|-1.1518151301481|Groundwater|Not discharging|False|2023-04-02T04:30:00|2023-04-02T05:00:00
Aldershot Town|CTCR.1974|SU884505|488400|150500|51.2468326011265|-0.734861196992165|River Blackwater|Not discharging|True|2023-04-03T13:45:00|2023-04-03T14:15:00
Allendale Road|TEMP.2367|TQ18018510|518010|185100|51.5524551971606|-0.299312732693112|Wembley Brook|Not discharging|False|None|None
Ampney St Peter|CSSC.2452|SP08360077|408360|200770|51.7056083968623|-1.88041889560713|Ampney Brook|Discharging|True|2023-03-22T09:15:00|None
Amyand Park Road, Twickenham|TEMP.2369|TQ16707330|516700|173300|51.4466737653528|-0.322097591600029|River Thames|Offline|False|None|None
Andoversford|CNTD.0001|SP02501986|402500|219860|51.8773023432616|-1.96508980756011|River Coln|Discharging|True|2023-03-29T11:15:00|None
Appleton|TEMP.2351|SU43689979|443680|199790|51.6951669273965|-1.36943249240316|Marcham Brook|Discharging|True|2023-03-31T04:45:00|None
Arborfield|CNTD.0020|SU76766738|476760|167380|51.4002681414581|-0.897963626635068|Barkham Brook|Not discharging|True|2023-04-04T05:00:00|2023-04-04T06:15:00
Arford|CASM.0402|SU82733688|482730|136880|51.1252378574359|-0.819209569927507|River Wey|Not discharging|False|2022-08-17T15:15:00|2022-08-17T16:15:00
Ascot|CTCR.2048|SU89076813|489070|168130|51.4052133474025|-0.720863438640952|Bull Brook (The Cut)|Not discharging|False|2022-11-21T20:30:00|2022-11-21T23:00:00
Ash Ridge (Wokingham)|TEMP.3020|SU81267006|481260|170060|51.4237347487453|-0.832676835682723|Ashridge Stream|Not discharging|False|2023-04-01T23:30:00|2023-04-02T01:30:00
Ash Vale|TEMP.2354|SU88535412|488530|154120|51.2793549176947|-0.732104195969319|River Blackwater|Not discharging|True|2023-04-02T20:30:00|2023-04-02T21:00:00
Aston Le Walls|CNTD.0040|SP49405100|449400|251000|52.1550771137404|-1.2793485914217|Tributary of Highfurlong Brook|Not discharging|False|2023-01-12T05:45:00|2023-01-12T12:15:00
Auckland Road Storm Tanks|CSBC.0085|TQ37518639|537510|186390|51.5596359589157|-0.017724686306804|Tributary of Dagenham Brook|Not discharging|False|2022-12-23T16:00:00|2022-12-23T17:08:00
Avon Dassett|TEMP.2362|SP40504930|440500|249300|52.1405168330234|-1.40963147232108|Hanwell Brook|Not discharging|False|2023-03-13T05:45:00|2023-03-13T13:00:00
Avondale Rd|TEMP.0376|SU818546|481800|154600|51.2846748334341|-0.828461845594247|Fleet Brook|Not discharging|None|None|None
Aylesbury|CSSC.0315|SP78621474|478620|214740|51.8257577912196|-0.86062334043462|River Thame|Not discharging|False|2023-04-02T02:30:00|2023-04-02T03:45:00
Bakers Farm, High Wych|TEMP.0382|TL462142|546200|214200|51.8073270836534|0.119182150991683|High Wych Ditch|Not discharging|False|2023-03-31T18:30:00|2023-03-31T20:45:00
Bampton|TEMP.2373|SP32300275|432300|202750|51.7225477376942|-1.53379924258431|Shill Brook|Discharging|True|2023-04-04T09:30:00|None
Banbury|CTCR.1867|SP471396|447100|239600|52.052792889325|-1.31453691689964|River Cherwell|Not discharging|True|2023-04-02T19:00:00|2023-04-02T21:45:00
Barbers Lane|TEMP.2431|TL09222138|509220|221380|51.8802976175461|-0.414677362507913|River Lee|Not discharging|None|None|None
Barkway|CATM.3093|TL38783476|538780|234760|51.993953827607|0.0199013475137503|River Quin|Discharging|True|2023-04-04T07:00:00|None
Basingstoke|CTCR.0875|SU67805525|467800|155250|51.2923544604732|-1.029049200144|Tributary of River Loddon|Not discharging|False|2023-01-16T04:30:00|2023-01-17T00:30:00
Beckley|CAWM.1403|SP56681194|456680|211940|51.8032378589774|-1.17938911527776|Otmoor Lane Ditch|Not discharging|True|2023-04-04T09:15:00|2023-04-04T10:30:00
Beckton|CSSA.0360|TQ45248161|545240|181610|51.5147500448442|0.0917372906538887|River Thames|Not discharging|False|2023-03-31T19:00:00|2023-03-31T20:00:00
Beddington|TEMP.2381|TQ29526633|529520|166330|51.3812513820342|-0.140263196643741|River Wandle|Not discharging|False|2023-03-31T17:45:00|2023-04-01T01:45:00
Beech Hall Crescent, Walthamstow|CLCR.0032|TQ38619140|538610|191400|51.6043861228034|0.000109098708066029|Ching Brook|Not discharging|False|2023-03-31T12:30:00|2023-04-01T00:30:00
Beenham|TEMP.2382|SU59396941|459390|169410|51.4206002410945|-1.14728395763863|Webbs Lane Stream|Not discharging|False|2023-04-02T08:15:00|2023-04-02T09:15:00
Beer Lane|CSAB.0559|TQ33308054|533300|180540|51.5080755154365|-0.0806319995674022|River Thames|Not discharging|False|2023-03-31T20:02:00|2023-03-31T20:08:00
Bell Lane Creek|TEMP.2438|TQ254749|525400|174900|51.4591953865844|-0.196403822584265|Bell Lane Creek|Offline|False|None|None
Bell Wharf|CSAB.0526|TQ35648071|535640|180710|51.5090468553461|-0.0468697782723838|River Thames|Not discharging|False|2023-03-31T19:26:00|2023-03-31T20:14:00
Benson|CATM.3525|SU62029051|462020|190510|51.6100154777742|-1.10576006825604|Howbery Ditch|Discharging|True|2023-03-31T16:30:00|None
Bentley|CSSC.2455|SU79004367|479000|143670|51.1868074863072|-0.871009432864769|Groundwater|Not discharging|True|2023-04-03T21:00:00|2023-04-03T21:30:00
Bentsbrook Road|TEMP.2441|TQ170474|517000|147400|51.2138261660943|-0.326280010466838|Bents Brook|Not discharging|False|2022-11-06T09:45:00|2022-11-06T10:15:00
Berkhamsted|CATM.3075|TL01300681|501300|206810|51.7508355138378|-0.533951183518247|Grand Union Canal|Not discharging|False|2023-04-01T08:00:00|2023-04-01T13:45:00
Bicester|CNTD.0023|SP57982131|457980|221310|51.8873408022592|-1.15896979577393|Langford Brook|Not discharging|True|2023-04-02T14:30:00|2023-04-02T15:15:00
Birchanger - Duck End|TEMP.0455|TL515218|551500|221800|51.874198137694|0.199322770567522|Great Hallingbury Brook|Not discharging|None|None|None
Bishop Stortford Main|CTCR.1919|TL49442011|549440|220110|51.8595696807765|0.168691387768457|River Stort Navigation|Not discharging|False|2023-03-31T22:58:00|2023-04-01T01:34:00
Blacknest,Sunningdale|CTCP.0428|SU95846875|495840|168750|51.4096843055021|-0.623395522559169|Virginia Water Lake|Not discharging|False|2023-04-02T00:52:00|2023-04-02T00:58:00
Bledington|TEMP.2395|SP25072282|425070|222820|51.9033614978946|-1.63701827917089|Bledington Brook |Not discharging|True|2023-03-29T20:00:00|2023-04-04T01:00:00
Bletchingdon|NPSWQD002610|SP50661738|450660|217380|51.8527212671353|-1.26589292399995|Bletchingdon Stream|Discharging|True|2023-04-04T06:00:00|None
Blind Mans Gate, Highclere|TEMP.0482|SU438618|443800|161800|51.3535939703673|-1.37240760597076|Penwood Stream|Not discharging|False|2023-04-02T07:30:00|2023-04-02T10:15:00
Bloxham|CSSC.2458|SP437357|443700|235700|52.0180093924947|-1.36461388989874|Bloxham Brook|Not discharging|True|2023-04-03T07:30:00|2023-04-03T11:45:00
Blunsdon|TEMP.2400|SU15139168|415130|191680|51.623738558067|-1.7828389314654|Tributary of Share Ditch|Not discharging|False|2023-04-01T10:15:00|2023-04-01T20:00:00
Boddington|CNTW.0359|SP47375241|447370|252410|52.1679301872915|-1.30882195148316|Feeder to Boddington Canal|Discharging|True|2023-04-03T18:15:00|None
Bordon|CTCR.1645|SU80363618|480360|136180|51.1192816033788|-0.853224080331424|River Wey|Not discharging|False|2023-03-31T08:00:00|2023-04-02T01:30:00
Bourton-On-The-Water|CTCR.2036|SP17621907|417620|219070|51.8699299661532|-1.74549176335022|Groundwater|Discharging|True|2023-03-29T10:45:00|None
Box Hill|TEMP.0505|TQ198523|519800|152300|51.2572866218441|-0.284573960129471|Groundwater|Offline|False|None|None
Bracknell|CTCR.1973|SU85377205|485370|172050|51.441020538272|-0.773100410102137|The Cut|Not discharging|True|2023-04-02T18:45:00|2023-04-02T22:45:00
Bramley|TEMP.0515|TQ012450|501200|145000|51.1952681123073|-0.553083026673596|Hascombe Stream|Not discharging|False|2023-03-29T19:15:00|2023-03-29T19:45:00
Brentfield Gardens|TEMP.2413|TQ23568797|523560|187970|51.5770609662961|-0.218296745426429|River Brent|Not discharging|False|2023-03-31T19:15:00|2023-03-31T20:45:00
Brickendon|CLCP.0173|TL32360843|532360|208430|51.7589228555345|-0.0836336477158578|Harmonds Brook West Arm|Not discharging|True|2023-03-30T15:15:00|2023-04-02T21:15:00
Brixton Storm Relief Sewer|CSAB.0554|TQ30257812|530250|178120|51.4870384155045|-0.125447271878387|River Thames|Not discharging|False|2023-04-01T00:12:00|2023-04-01T00:18:00
Broadwell|TEMP.2418|SP21732717|421730|227170|51.9426105346408|-1.68529066440263|River Evenlode|Not discharging|True|2023-03-31T12:15:00|2023-04-02T22:00:00
Brockham Bridge|TEMP.0545|TQ196496|519600|149600|51.233061401365|-0.288339818082506|River Mole|Not discharging|False|2023-04-01T03:15:00|2023-04-01T13:45:00
Brook Way, Chigwell|TEMP.2449|TQ43399319|543390|193190|51.6192743242027|0.0698154157126515|Chigwell Brook|Not discharging|False|2023-03-29T19:15:00|2023-03-29T19:45:00
Broome (Attenuation Tank)|TEMP.2451|SU159824|415900|182400|51.5402785358738|-1.77213334861677|River Ray|Not discharging|False|2023-01-14T09:30:00|2023-01-14T12:45:00
Bucklebury (Briff Lane)|TEMP.2421|SU54746987|454740|169870|51.4252031856059|-1.21407902932375|Briff Lane Stream|Not discharging|True|2023-04-03T08:30:00|2023-04-03T09:00:00
Buntingford|CATM.3092|TL36392867|536390|228670|51.9398245923473|-0.0173026441033972|River Rib|Not discharging|False|2023-04-01T07:45:00|2023-04-01T11:45:00
Burford|CTCP.0026|SP25651227|425650|212270|51.8084830481944|-1.62936780607951|River Windrush|Not discharging|False|None|None
Burghfield|TEMP.2425|SU65926857|465920|168570|51.4123278553019|-1.05354310903747|Clay Hill Brook|Discharging|True|2023-03-18T10:30:00|None
Burstow|CASM.0095|TQ30394385|530390|143850|51.1790241717076|-0.135965278167044|Burstow Stream|Discharging|True|2023-04-04T08:15:00|None
Bushey Court, Raynes Park|TEMP.2429|TQ21826989|521820|169890|51.4149497253427|-0.249629511257783|Beverley Brook|Not discharging|None|None|None
Byfield|CTCR.1776|SP52365256|452360|252560|52.1688288178711|-1.23584696740875|Byfield Brook|Not discharging|True|2023-04-03T07:30:00|2023-04-03T08:45:00
Caddington|CSSC.8551|TL07631692|507630|216920|51.8405218941949|-0.439155090726124|Groundwater|Not discharging|False|2023-03-31T19:15:00|2023-04-01T08:30:00
Cage End, Essex|TEMP.1114|TL54621632|554620|216320|51.8241102106131|0.242158963241365|Mus Brook|Not discharging|False|2023-03-31T14:45:00|2023-04-01T09:00:00
Camberley|TEMP.2455|SU86125948|486120|159480|51.3279085356002|-0.765356313715459|River Blackwater|Not discharging|False|2023-04-01T03:30:00|2023-04-01T12:45:00
Canfield End, Little Canfield|TEMP.0596|TL585213|558500|221300|51.867762756079|0.300690738324648|River Roding|Offline|False|None|None
Canfold Wood|TEMP.0597|TQ085397|508500|139700|51.1462901141169|-0.450248252536842|Thornhurst Brook|Not discharging|False|2023-03-31T07:00:00|2023-03-31T07:30:00
Canterbury Road, Thornton Heath|TEMP.2514|TQ29056671|529050|166710|51.3847733642256|-0.146875075790206|Unnamed Watercourse|Not discharging|False|None|None
Capel|CTCR.1765|TQ18084104|518080|141040|51.1564401207594|-0.312913095561201|Deanoak Brook|Offline|False|None|None
Carterton|CATM.3521|SP28000486|428000|204860|51.7417488208489|-1.59587868174193|Shill Brook|Discharging|True|2023-03-31T14:00:00|None
Cascade road storm tanks, buckhurst|TEMP.2818|TQ423935|542300|193500|51.6223362119559|0.0542075348597311|River Roding|Not discharging|False|2023-03-31T10:45:00|2023-04-01T00:45:00
Cassington|TEMP.2457|SP46441001|446440|210010|51.7868285820881|-1.3281425135306|River Thames|Not discharging|False|2023-01-14T14:15:00|2023-01-15T04:30:00
Castle Drive|TEMP.0615|TQ254480|525400|148000|51.217437589961|-0.205867775807963|Norman's Gill|Not discharging|None|None|None
Castle Gardens, Dorking|CTCR.0392|TQ19105020|519100|150200|51.2385586067485|-0.295298660992413|River Mole|Offline|False|None|None
Chacombe|TEMP.2460|SP49274417|449270|244170|52.0936883950223|-1.28223538957125|Chacombe Brook|Not discharging|False|2023-03-31T18:30:00|2023-03-31T19:45:00
Chadlington|TEMP.2461|SP32712119|432710|221190|51.888312317039|-1.52612978733977|Chadlington Stream|Not discharging|True|2023-04-03T06:00:00|2023-04-03T10:15:00
Chalgrove|TEMP.2462|SU64909882|464900|198820|51.6843986383451|-1.0626365033002|Warpsgrave Ditch|Discharging|True|2023-04-04T07:00:00|None
Chapel Row (Berks)|CSSC.2466|SU57456934|457450|169340|51.4201704520819|-1.17519183998131|Tributary of River Bourne|Not discharging|True|2023-03-31T11:45:00|2023-04-03T05:45:00
Chapmore End|TEMP.2465|TL33221681|533220|216810|51.8340209827213|-0.0679645522940497|Tributary of River Rib|Not discharging|False|2023-03-31T13:15:00|2023-04-01T00:00:00
Charlbury|TEMP.2466|SP35301918|435300|219180|51.8700839068654|-1.48870355477332|River Evenlode|Not discharging|False|2023-03-31T18:45:00|2023-03-31T21:30:00
Charlton Storm Relief|CSAB.0551|TQ41287929|541280|179290|51.4949063265265|0.0337783734077281|River Thames|Not discharging|False|2023-03-31T19:45:00|2023-04-01T01:45:00
Charlton-On-Otmoor|TEMP.2467|SP56881592|456880|215920|51.8389979458007|-1.17583646827043|River Ray|Not discharging|True|2023-04-03T20:00:00|2023-04-03T20:30:00
Charlwood, Surrey|CTCR.1926|TQ24974096|524970|140960|51.1542592606007|-0.214468210010896|Mans Brook|Not discharging|False|2023-03-31T05:15:00|2023-03-31T11:15:00
Chelsea, London, Sw10|CSSA.0403|TQ2810677796|528106|177796|51.4846159751368|-0.156426651677585|River Thames|Not discharging|False|2023-03-23T20:36:00|2023-03-23T21:10:00
Chertsey|CTCR.1977|TQ017681|501700|168100|51.402822188141|-0.539354811879941|River Bourne|Discharging|True|2023-03-31T12:30:00|None
Chesham|TEMP.2474|SU97919961|497910|199610|51.6867212306865|-0.585064145305581|River Chess|Not discharging|False|2023-03-31T17:00:00|2023-03-31T23:30:00
Chieveley|TEMP.2475|SU46837392|446830|173920|51.4623236903244|-1.32730266524654|Winterbourne Stream|Not discharging|False|2023-03-31T19:30:00|2023-03-31T23:30:00
Chilton Foliat|TEMP.2478|SU31887010|431880|170100|51.429013617097|-1.54283218916742|Tributary of River Kennet|Not discharging|False|2023-04-01T05:15:00|2023-04-01T05:45:00
Chingford Storm Tanks|TEMP.2520|TQ371918|537100|191800|51.6083498010357|-0.0215247160976484|River Lee|Not discharging|False|2022-11-06T11:15:00|2022-11-06T12:45:00
Chinnor|TEMP.2480|SP76020324|476020|203240|51.7227391887722|-0.900855759179291|Henton Stream|Discharging|True|2023-04-04T11:00:00|None
Chipping Norton|CTCR.1767|SP29392665|429390|226650|51.9375851242238|-1.57390381779306|Blue Brook|Not discharging|True|2023-04-02T07:15:00|2023-04-02T23:00:00
Chipping Warden|CTCR.1793|SP50004815|450000|248150|52.1294024526163|-1.27099761423205|Tributary of River Cherwell|Not discharging|False|2023-01-10T06:00:00|2023-01-11T13:00:00
Chobham|TEMP.2484|SU97766102|497760|161020|51.3398722904097|-0.597922564628588|River Bourne|Not discharging|False|2023-04-01T17:15:00|2023-04-01T18:30:00
Cholsey|TEMP.2485|SU59098719|459090|187190|51.5804821488634|-1.14862536574791|Cholsey Brook|Not discharging|False|2023-03-31T21:45:00|2023-04-01T00:00:00
Church Hanborough|CSSC.5783|SP42231293|442230|212930|51.8134135729771|-1.38881800372144|Hanborough Stream|Not discharging|True|2023-04-04T09:45:00|2023-04-04T10:30:00
Church Hill Road, Barnet|CTCR.1998|TQ27309523|527300|195230|51.6414728182936|-0.161720410936208|Tributary of Pymmes Brook|Not discharging|False|2023-03-31T19:15:00|2023-03-31T19:45:00
Church Street Sewer|CSAB.0574|TQ27117755|527110|177550|51.4826297137046|-0.170851480298702|River Thames|Not discharging|False|2022-11-20T07:30:00|2022-11-20T07:40:00
Churt|CASM.0403|SU85293808|485290|138080|51.1356509237469|-0.782353568270478|Whitmoor Vale Stream|Not discharging|False|2023-03-31T07:44:00|2023-03-31T07:58:00
Cirencester|CTCR.1750|SU03589679|403580|196790|51.6698734178344|-1.94963149848006|Shorncote Ditch|Discharging|True|2023-03-30T02:30:00|None
Clanfield|TEMP.2488|SP29000181|429000|201810|51.7142760046913|-1.58164920516001|Marsh Lane West Ditch|Discharging|True|2023-04-03T19:15:00|None
Clapham Storm Relief Sewer, London|CSSB.7809|TQ30237809|530230|178090|51.4867734172066|-0.125746214458122|River Thames|Not discharging|False|2023-04-02T11:40:00|2023-04-02T11:44:00
Clifton|TEMP.0707|SP49113155|449110|231550|51.9802495717841|-1.28637880044478|Clifton Brook|Not discharging|False|2023-03-31T15:00:00|2023-03-31T18:00:00
Cobham Bridge, Adj Cobham PS|CASM.0067|TQ09896076|509890|160760|51.3353224949961|-0.423928627585006|River Mole|Not discharging|True|2023-03-31T14:30:00|2023-04-03T00:45:00
Codicote|RET/TH/23/RG|TL220180|522000|218000|51.8472761306924|-0.23029496699423|Groundwater|Not discharging|False|2023-03-31T12:45:00|2023-03-31T14:15:00
Colgate|TEMP.2495|TQ23163307|523160|133070|51.0837374426636|-0.243027885285154|Ifield Brook|Offline|False|None|None
Combe|TEMP.2496|SP40651558|440650|215580|51.8373551850455|-1.41142576437748|River Evenlode|Discharging|True|2023-03-29T19:30:00|None
Commonside|TEMP.0730|TQ133562|513300|156200|51.2936680172132|-0.376446673896618|Bookham Brook|Not discharging|False|2023-04-01T05:45:00|2023-04-01T10:00:00
Compton (Berks)|CAWM.0012|SU52607900|452600|179000|51.5074908069564|-1.24349940434561|River Pang|Not discharging|False|2023-01-23T08:45:00|2023-01-23T09:15:00
Coppice Green, Bracknell|CTCR.1999|SU85897041|485890|170410|51.426199286517|-0.766017815372137|The Cut|Not discharging|False|2023-04-01T05:30:00|2023-04-01T13:30:00
Corbett Rd / Redbridge Lane, Wanstead|CEHR.0019|TQ4122988323|541229|188323|51.5760871971836|0.0366644320436792|River Roding|Not discharging|False|2023-03-31T19:15:00|2023-03-31T19:45:00
Cottered|CSSC.1038|TL31522968|531520|229680|51.9500715215311|-0.0877185728841974|Cottered Brook|Discharging|True|2023-03-29T20:15:00|None
Counters Creek, Lots Road|CSAB.0573|TQ26597710|526590|177100|51.4787021003758|-0.178497176665632|River Thames|Not discharging|False|2023-03-29T19:15:00|2023-03-29T21:45:00
Cranleigh|CTCR.1838|TQ04033925|504030|139250|51.1430740234576|-0.514258349718593|Cranleigh Waters|Not discharging|False|2023-03-30T21:00:00|2023-03-31T06:45:00
Crawley|CNTM.1402|TQ29014028|529010|140280|51.1472521846567|-0.156976380172968|Tributary of River Mole|Not discharging|False|2023-03-31T05:45:00|2023-04-02T01:00:00
Cricklade|CSSC.2470|SU10679386|410670|193860|51.6434407620304|-1.84719899927389|Tributary of River Thames|Not discharging|True|2023-04-04T10:15:00|2023-04-04T11:15:00
Crofton Road, Sunnydale|CSSA.0354|TQ43506585|543500|165850|51.3735794470038|0.0602946141737911|Kyd Brook|Not discharging|False|2023-03-31T14:30:00|2023-04-01T02:15:00
Crondall|CSSC.2450|SU79554953|479550|149530|51.2394134969434|-0.861843527610554|River Hart|Not discharging|False|2023-03-10T09:15:00|2023-03-10T11:30:00
Crooked Billet|CATM.3173|SU73765478|473760|154780|51.2873894053501|-0.94368736285934|River Whitewater|Not discharging|False|2023-04-01T08:20:00|2023-04-01T08:32:00
Cropredy|TEMP.2506|SP46944621|446940|246210|52.1122298488932|-1.31596256017395|River Cherwell|Not discharging|False|2023-04-01T20:15:00|2023-04-02T02:00:00
Crossness|CSSA.0362|TQ48508117|548500|181170|51.5099498218484|0.13849887535853|River Thames|Not discharging|False|2023-03-31T19:00:00|2023-04-01T04:30:00
Cuddington|CSSC.2446|SP73801196|473800|211960|51.8014237102572|-0.93113953136177|River Thame|Not discharging|True|2023-04-03T06:45:00|2023-04-04T00:15:00
Culham|TEMP.2511|SU53979553|453970|195530|51.655975019653|-1.22122610377235|Clifton Hampton Ditch|Discharging|True|2023-03-31T19:00:00|None
Culworth|TEMP.2512|SP54514663|454510|246630|52.1153127097363|-1.20536350088711|Tributary of Culworth Brook|Not discharging|False|2023-03-31T17:30:00|2023-03-31T18:30:00
Dagnall|CTCU.0375|SP99621553|499620|215530|51.8295132155362|-0.555778492559737|Groundwater|Not discharging|False|2023-03-31T20:30:00|2023-03-31T21:15:00
Daintry Close|CANM.0233|TQ16338922|516330|189220|51.589832240062|-0.322169719760653|Wealdstone Brook|Not discharging|False|2023-01-08T12:15:00|2023-01-08T13:00:00
Dartford Creek Storm|TEMP.2537|TQ537755|553700|175500|51.4576167988358|0.21090628796345|Darent / Dartford Creek|Offline|False|None|None
Dean Oak Lane|TEMP.0822|TQ238453|523800|145300|51.1935198466311|-0.229695894934966|Deanoak Brook|Not discharging|False|2023-04-01T06:45:00|2023-04-01T07:30:00
Deephams|CNTD.0072|TQ35669315|535660|193150|51.6208294085752|-0.0417846384874434|Salmon Brook|Not discharging|False|2023-03-31T15:30:00|2023-04-01T03:00:00
Deptford Creek Storm|TEMP.2540|TQ374770|537400|177000|51.475283540995|-0.0229679038995891|River Ravensbourne / Deptford Creek|Offline|False|None|None
Deptford Storm Relief|CSAB.0536|TQ37427807|537420|178070|51.4848938523416|-0.0222641789997755|River Thames|Not discharging|False|2023-03-31T19:32:00|2023-03-31T23:44:00
Didcot|CATM.3651|SU52059140|452050|191400|51.6190250223464|-1.24959120818012|Moor Ditch|Discharging|True|2023-03-31T07:15:00|None
District Road|TEMP.2551|TQ18018510|518010|185100|51.5524551971606|-0.299312732693112|Wembley Brook|Not discharging|False|2022-12-23T09:15:00|2022-12-23T09:45:00
Dorchester|TEMP.2542|SU58019374|458010|193740|51.6394808243668|-1.16312801837745|River Thame|Not discharging|None|None|None
Dorking|CASM.1027|TQ17745056|517740|150560|51.2420762797332|-0.314653058286689|River Mole|Not discharging|True|2023-04-02T11:00:00|2023-04-02T22:45:00
Dorking Road|TEMP.0844|TQ229548|522900|154800|51.2790964167178|-0.239312689974309|Buckland Brook|Offline|False|None|None
Dorton|TEMP.2544|SP68441420|468440|214200|51.8222411135862|-1.00841663505672|Dorton Brook|Not discharging|False|2023-04-01T16:00:00|2023-04-01T19:30:00
Draycot Foliat|TEMP.0856|SU187777|418700|177700|51.49793400081|-1.73200881957909|River Ray|Offline|False|None|None
Drayton (Oxon)|CNTD.0030|SU48309332|448300|193320|51.6366205224924|-1.30348717607416|Ginge Brook|Discharging|True|2023-03-31T09:45:00|None
Duntshill Road|TEMP.2555|TQ25807307|525800|173070|51.442660409738|-0.191299445370389|River Wandle|Not discharging|None|None|None
Earl|CSAB.0533|TQ36727897|536720|178970|51.4931509103425|-0.0319909490253022|River Thames|Not discharging|False|2023-03-31T15:15:00|2023-04-01T01:00:00
Earlswood (Reigate)|CASM.0827|TQ27244801|527240|148010|51.2171207691814|-0.179532723170773|Earlswood Brook|Not discharging|False|2023-03-31T02:45:00|2023-04-02T02:45:00
Earlswood Common, S Of Pendleton Road|TEMP.2575|TQ269486|526900|148600|51.2224989186387|-0.184189658967523|Redhill Brook|Not discharging|False|2022-12-23T08:45:00|2022-12-23T10:45:00
East Garston|TEMP.0882|SU367764|436700|176400|51.4853671593341|-1.47285320359333|River Lambourn|Not discharging|False|2023-02-11T16:04:00|2023-02-11T16:08:00
East Grafton|CNTD.0031|SU25896096|425890|160960|51.347135914643|-1.62965284112501|River Dun|Offline|False|None|None
East Shefford|CNTD.0032|SU39377449|439370|174490|51.4680151939385|-1.43461515942876|River Lambourne|Not discharging|None|None|None
Eastcote Avenue|TEMP.2580|TQ18378470|518370|184700|51.5487848991723|-0.294257320451304|Wembley Brook|Not discharging|None|None|None
Easthampstead Park|TEMP.2561|SU84076641|484070|166410|51.3905133980362|-0.793135797060794|Emm Brook|Not discharging|False|2023-03-31T20:30:00|2023-04-01T23:30:00
Elmcroft Avenue, Wanstead|CANM.0910|TQ4140089300|541400|189300|51.5848233393122|0.0395234842775225|River Roding|Not discharging|False|2022-08-17T15:15:00|2022-08-17T16:45:00
Elvetham Close|TEMP.0917|SU804551|480400|155100|51.289368880029|-0.848419523419438|Basingstoke Canal|Not discharging|False|2023-02-11T10:15:00|2023-02-11T11:00:00
Epping|CSSC.0295|TL47810038|547810|200380|51.682734013832|0.136649636990192|Brookhouse Brook|Discharging|True|2023-03-26T09:45:00|None
Epsom Storm Tanks, Longmead Road|TEMP.2567|TQ211621|521100|162100|51.3450911489011|-0.262630869802221|Green Lanes Stream|Offline|False|None|None
Esher|CTCR.0753|TQ13036598|513030|165980|51.381625359389|-0.377216324402379|River Mole|Discharging|True|2023-04-04T07:45:00|None
Essendon, Holywell Bridge|TEMP.0924|TL276097|527600|209700|51.7714392552827|-0.152096044339383|River Lea|Not discharging|False|2023-01-12T08:45:00|2023-01-12T14:15:00
Eydon|CSSC.1370|SP54515019|454510|250190|52.1473157800811|-1.20479410385643|Ashby Brook|Not discharging|True|2023-03-30T18:15:00|2023-04-03T11:45:00
Fairford|CATM.3518|SP15660038|415660|200380|51.7019471139209|-1.7747959810704|River Coln|Discharging|True|2023-03-19T06:30:00|None
Falcon Brook|CSAB.0557|TQ26487602|526480|176020|51.4690207592956|-0.180466553155505|River Thames|Not discharging|False|2023-03-31T20:30:00|2023-03-31T23:15:00
Faringdon|CSSC.2343|SU27949651|427940|196510|51.6666775663356|-1.59741406800844|Faringdon Stream|Not discharging|True|2023-04-03T19:30:00|2023-04-03T20:00:00
Farnborough (Warks)|CSSC.1369|SP42814946|442810|249460|52.1417815250513|-1.37585986425193|Tributary of Hanwell Brook|Discharging|True|2023-03-29T05:45:00|None
Farnham|TEMP.2589|SU85684801|485680|148010|51.2248625188765|-0.774416202502813|Tributary of Farnham Park|Not discharging|False|2023-04-01T15:00:00|2023-04-01T17:45:00
Fergusson Road, Banbury|TEMP.2606|SP46114115|446110|241150|52.0668104180206|-1.32876458780672|Tributary of River Cherwell|Not discharging|False|None|None
Field End Rd Storm (Harrow)|TEMP.2592|TQ12358574|512350|185740|51.5593617077761|-0.380707800187304|Yeading Brook East|Not discharging|False|2022-11-03T06:45:00|2022-11-03T10:15:00
Finstock|TEMP.2594|SP36811696|436810|216960|51.8500276610088|-1.46700889555297|River Evenlode|Not discharging|False|2023-03-31T13:45:00|2023-04-02T00:00:00
Fleet|CTCR.1836|SU80505650|480500|156500|51.3019407132188|-0.846670525259886|Fleet Brook|Discharging|True|2023-04-04T10:15:00|None
Fleet Main Line Sewer|CSAB.0541|TQ31658080|531650|180800|51.5107984706371|-0.104296286016339|River Thames|Not discharging|False|2023-03-31T19:20:00|2023-03-31T21:36:00
Folkestone Rd Tanks, East Ham|CSBC.0127|TQ44118319|544110|183190|51.5292362945749|0.0761094573015089|River Roding (Barking Creek)|Not discharging|False|2023-03-29T22:15:00|2023-03-29T23:15:00
Forest Hill|TEMP.2597|SP59100811|459100|208110|51.7685560259555|-1.14494772859762|Polecat End Ditch|Not discharging|None|None|None
Friday Street, Henley|TEMP.1003|SU763827|476300|182700|51.5380547969447|-0.901272250721693|River Thames|Not discharging|False|2023-03-31T15:54:00|2023-03-31T16:02:00
Frogmore Storm|TEMP.2599|TQ254749|525400|174900|51.4591953865844|-0.196403822584265|Bell Lane Creek|Not discharging|True|2023-04-04T01:08:00|2023-04-04T03:12:00
Fyfield (Wilts)|CNTD.0046|SU15086837|415080|168370|51.4141510374096|-1.78455113392907|River Kennet|Offline|False|None|None
Gap Road (Cemetery)|TEMP.2630|TQ25867187|525860|171870|51.4318626043046|-0.190862737609492|River Wandle|Not discharging|None|None|None
Garden Way|TEMP.2610|TQ20008450|520000|184500|51.5466434962271|-0.270828987882554|River Brent|Not discharging|False|None|None
Gascoigne Rd Storm Tanks, Beckton|CSBC.0128|TQ44708289|544700|182890|51.5263899030931|0.0844857723423754|River Roding (Barking Creek)|Not discharging|False|2023-02-15T01:00:00|2023-02-15T01:30:00
Gerrards Cross|TEMP.2613|TQ01948761|501940|187610|51.5781453674955|-0.530277806489703|River Misbourne|Discharging|True|2023-03-24T15:45:00|None
Godalming|TEMP.2614|SU99374572|499370|145720|51.2020611185712|-0.579064809456814|River Wey|Not discharging|False|2023-01-16T14:15:00|2023-01-17T00:30:00
Gordon Road|TEMP.2637|TQ43578548|543570|185480|51.5499506114496|0.0692634603449575|River Roding|Not discharging|False|2022-08-17T15:30:00|2022-08-17T16:00:00
Goring|TEMP.2616|SU59898264|459890|182640|51.5394917679684|-1.13785503154258|River Thames|Not discharging|None|None|None
Goswell Street|CSAB.0543|TQ32458068|532450|180680|51.5095333062949|-0.0928200503835668|River Thames|Not discharging|False|2023-03-04T11:54:00|2023-03-04T12:14:00
Great Bedwyn|TEMP.2619|SU28366490|428360|164900|51.3824448198762|-1.59387599683297|Kennet & Avon Canal|Not discharging|False|2023-04-01T21:54:00|2023-04-01T22:02:00
Greatworth|CSSC.7686|SP54944212|454940|242120|52.0747268301339|-1.19981004951184|Tributary of Farthinghoe Stream|Not discharging|False|2022-11-23T20:15:00|2022-11-23T21:15:00
Greenwich|CSAB.0537|TQ38197794|538190|177940|51.4835382125053|-0.0112326051053905|River Thames|Not discharging|False|2023-03-10T10:30:00|2023-03-10T18:15:00
Grendon Underwood|TEMP.2626|SP67992115|467990|221150|51.8847735919625|-1.01357976521782|River Ray|Not discharging|False|2023-04-02T11:00:00|2023-04-02T11:30:00
Guildford|CTCR.1107|TQ00405185|500400|151850|51.2569841314687|-0.562611398704681|River Wey|Not discharging|False|2023-01-17T20:04:00|2023-01-17T23:38:00
Gun Wharf (Wapping Dock)|CSAB.0548|TQ35028013|535020|180130|51.5039831671621|-0.0560200627144039|River Thames|Not discharging|None|None|None
Haddenham|CSSC.2316|SP74410752|474410|207520|51.761429883121|-0.923245250480642|Scotsgrove Brook|Not discharging|False|2023-01-18T08:45:00|2023-01-19T02:00:00
Hadham Mill|TEMP.1074|TL428178|542800|217800|51.840551389159|0.0713847806393107|River Ash|Not discharging|False|2023-03-31T13:45:00|2023-04-01T16:15:00
Hambleden|CAWM.0193|SU786848|478600|184800|51.5566179174153|-0.867648403326956|River Thames|Not discharging|False|None|None
Hammersmith|CSAB.0572|TQ23107799|523100|177990|51.487470209341|-0.228416992854987|River Thames|Not discharging|False|2023-03-31T20:45:00|2023-03-31T23:30:00
Hampstead Norreys|TEMP.2647|SU53207573|453200|175730|51.4780352564543|-1.23534692290237|River Pang|Discharging|True|2023-04-04T10:45:00|None
Hamstead Marshall|CSSC.1381|SU41726521|441720|165210|51.3844100018477|-1.40187599888693|Hamstead Stream|Not discharging|False|2023-04-01T23:45:00|2023-04-02T00:15:00
Hannington|TEMP.2675|SU17729347|417720|193470|51.639757686459|-1.7453359248339|Bydemill Ditch|Not discharging|False|2023-04-01T06:00:00|2023-04-01T09:30:00
Hanwell|TEMP.2648|SP43784364|443780|243640|52.0893841425837|-1.36243336343247|Hanwell Brook|Not discharging|True|2023-04-03T06:45:00|2023-04-03T07:15:00
Harpenden|TEMP.2649|TL15101471|515100|214710|51.8191722081271|-0.331510203882008|River Lee|Not discharging|False|2023-03-31T19:45:00|2023-04-01T03:45:00
Hartley Wintney|CTCR.1865|SU76695805|476690|158050|51.3164006685457|-0.900978401542125|Tributary of River Whitewater|Not discharging|True|2023-04-02T08:30:00|2023-04-02T12:30:00
Haslemere|CTCR.1203|SU87793253|487790|132530|51.0853795623448|-0.7479795737179|River Wey|Not discharging|False|2023-03-30T18:00:00|2023-04-02T08:15:00
Hatfield Heath|CSSC.0261|TL52271399|552270|213990|51.8038215980012|0.207064373232821|Pincey Brook|Discharging|True|2023-03-29T20:00:00|None
Heath Wall PS|CSAB.0522|TQ29537772|529530|177720|51.4836089455055|-0.135957857667663|River Thames|Not discharging|False|2023-03-31T19:15:00|2023-03-31T22:45:00
Henley|TEMP.2657|SU76058418|476050|184180|51.5513933151749|-0.904556744475865|Fawley Court Stream|Not discharging|False|2023-03-31T18:00:00|2023-04-01T15:00:00
Henley Road|TEMP.2679|TQ42927973|542920|179730|51.4984481791002|0.0575647136809568|River Thames|Not discharging|True|2023-04-03T21:28:00|2023-04-03T21:34:00
Heyford|TEMP.2658|SP49282543|449280|225430|51.9252153579605|-1.28477943003844|River Cherwell|Not discharging|False|2023-04-01T08:15:00|2023-04-01T10:15:00
High Road, Woodford|TEMP.2681|TQ41498929|541490|189290|51.5847109139388|0.0408175998861288|River Roding|Not discharging|False|2023-03-31T19:00:00|2023-03-31T19:30:00
High Wycombe|TEMP.2659|SU885920|488500|192000|51.6198751548314|-0.723071315953717|River Wye|Offline|False|None|None
Highfield Road Jct With Brookside Road|CANM.1220|TQ24348835|524340|188350|51.5803046574406|-0.206912047148002|Decoy Brook|Not discharging|False|None|None
Highworth|CNTD.0075|SU19799377|419790|193770|51.6423864193897|-1.71540709269813|Westrop Brook|Not discharging|True|2023-03-31T08:30:00|2023-04-02T18:00:00
Highworth Eastrop|RET/TH/24/RG|SU209928|420900|192800|51.6336250944008|-1.699424052821|Groundwater|Not discharging|False|2023-04-01T06:15:00|2023-04-01T06:45:00
Hillside Avenue|AB3890AS|TQ41929219|541920|192190|51.6106610314211|0.0481919400388552|River Roding|Not discharging|False|2022-12-23T09:15:00|2022-12-23T10:30:00
Hockford (Pirbright)|CNTD.0037|SU95895417|495890|154170|51.2786146083557|-0.626599642784986|Stanford Brook|Not discharging|False|2023-03-31T18:00:00|2023-04-01T16:00:00
Hogsmill|CASM.0042|TQ19206856|519200|168560|51.403552584283|-0.287733158467019|River Hogsmill|Not discharging|False|2023-03-31T16:15:00|2023-04-01T16:00:00
Holloway Storm Sewer|CSAB.0527|TQ36078081|536070|180810|51.5098421868448|-0.0406389711456526|River Thames|Not discharging|False|None|None
Holmwood|CTCR.1189|TQ18924492|518920|144920|51.1911398059566|-0.299624996739237|Holmwood Stream|Not discharging|True|2023-04-03T21:00:00|2023-04-03T22:15:00
Holybourne|CASM.0710|SU73514059|473510|140590|51.1598482391564|-0.95017728951343|River Wey|Not discharging|False|2023-01-16T01:30:00|2023-01-18T00:15:00
Honeypot Lane|CANM.0664|TQ18848984|518840|189840|51.5948810832449|-0.285745338774591|Kenton Brook|Not discharging|False|2023-03-31T19:00:00|2023-03-31T20:15:00
Hook Norton|CTCR.1796|SP36903345|436900|233450|51.9982737321677|-1.46394012300723|Hook Norton Brook|Not discharging|False|2023-04-01T08:30:00|2023-04-01T09:15:00
Horley (Oxon)|TEMP.2667|SP42234338|442230|243380|52.0871668516696|-1.38508669537838|Sor Brook|Not discharging|True|2023-04-03T11:15:00|2023-04-03T12:00:00
Horley (Surrey)|CTCR.1779|TQ26794359|526790|143590|51.1774963605182|-0.187532053827068|River Mole|Not discharging|True|2023-03-31T05:30:00|2023-04-02T23:00:00
Hornton|TEMP.2669|SP39694476|439690|244760|52.0997606207658|-1.42199446269907|Hornton Stream|Not discharging|False|2022-10-23T19:15:00|2022-10-23T22:15:00
Horseferry Road|CSAB.0563|TQ30277901|530270|179010|51.4950319400182|-0.124831228411309|River Thames|Not discharging|True|2023-04-04T06:22:00|2023-04-04T06:32:00
Horton-Cum-Studley|CNTD.0008|SP60561199|460560|211990|51.8032813803114|-1.12311673303999|Danes Brook|Not discharging|False|2023-03-31T07:30:00|2023-04-02T01:30:00
Huckers Lane (Selbourne)|TEMP.1200|SU744339|474400|133900|51.0995869845715|-0.938831558065412|Oakhanger Stream|Offline|False|None|None
Hungerford|CSSC.2335|SU35386820|435380|168200|51.4117232574995|-1.49267978126463|River Kennet|Not discharging|False|2023-04-01T09:15:00|2023-04-01T12:00:00
Iron Gate|CSAB.0580|TQ33718037|533710|180370|51.5064510566123|-0.0747921635799024|River Thames|Not discharging|False|2023-03-31T21:48:00|2023-03-31T22:00:00
Ironsbottom (Sidlow)|TEMP.2691|TQ25024648|525020|146480|51.2038598022002|-0.211835127362908|Tributary of River Mole|Not discharging|False|None|None
Isle Of Dogs, London|CSSC.7688|TQ38407970|538400|179700|51.4993023372617|-0.00752075373469071|River Thames|Not discharging|False|None|None
Islip|TEMP.2692|SP53101388|453100|213880|51.8210295039279|-1.23100694423519|River Ray|Not discharging|True|2023-04-03T17:45:00|2023-04-04T09:45:00
Iver (North)|CNTD.0079|TQ04348081|504340|180810|51.5165863189353|-0.497669977242048|Colne Brook|Not discharging|None|None|None
Jews Row Pumping Station (Falconbrook Storm Relief)|CSSA.0383|TQ25927542|525920|175420|51.4637533190173|-0.188738030245438|River Thames|Not discharging|False|2022-11-28T14:38:00|2022-11-28T17:00:00
Kempsford|CATM.3520|SU16579754|416570|197540|51.6763864591954|-1.76176214285044|Dudgrove Stream|Not discharging|False|2023-03-31T23:30:00|2023-04-01T05:15:00
Kendal Road, Cullingworth Road|TEMP.2708|TQ21798559|521790|185590|51.556056404595|-0.244650635716204|Mitchell Brook|Not discharging|False|2022-08-17T14:30:00|2022-08-17T15:00:00
Kew Transfer|CASM.0249|TQ19807700|519800|177000|51.4792807052529|-0.276258039516789|River Thames|Not discharging|None|None|None
Kilda Road|TEMP.1250|SU195930|419500|193000|51.6354733117217|-1.71964055228902|Westrop Brook|Offline|False|None|None
Kimpton Road (Vauxhall Rd)|CANM.0473|TL10912000|510910|220000|51.8675618786663|-0.390578582587566|River Lee|Not discharging|False|None|None
Kingham|CTCR.1981|SP25872332|425870|223320|51.9078204135007|-1.6253532966172|Cornwell Brook|Not discharging|False|2023-04-01T13:00:00|2023-04-01T15:45:00
Kings Avenue|EPR/AB3890EX|TQ41929219|541920|192190|51.6106610314211|0.0481919400388552|River Roding|Not discharging|False|2022-08-17T15:30:00|2022-08-17T17:15:00
Kings Scholars Pond|CSAB.0561|TQ29877806|529870|178060|51.4865865270361|-0.130939190509015|River Thames|Offline|False|None|None
Kings Sutton|TEMP.2702|SP50253562|450250|235620|52.0167370332287|-1.26918672784033|Kings Sutton Stream|Not discharging|False|2023-01-14T07:30:00|2023-01-14T08:00:00
Kingsclere|TEMP.2703|SU53136086|453130|160860|51.3443485624722|-1.23857805743079|Kingsclere Brook|Discharging|True|2023-04-04T06:30:00|None
Kingston Bagpuize|CTCR.2011|SU40359753|440350|197530|51.6750964967962|-1.41786901338573|Bagpuize Brook|Not discharging|False|2023-04-01T16:45:00|2023-04-01T18:45:00
Kingston Main|TEMP.1273|TQ178696|517800|169600|51.4131919738159|-0.307505409739071|River Thames|Not discharging|None|None|None
Kintbury|TEMP.2706|SU395671|439500|167100|51.4015617518479|-1.43356572387127|Kennet & Avon Canal|Not discharging|True|2023-03-31T11:22:00|2023-04-03T11:40:00
Knights Lane|TEMP.1280|SU423636|442300|163600|51.3698914358492|-1.39373312948181|River Enbourne|Offline|False|None|None
Knowle Lane, Cranleigh|TEMP.2711|TQ05683880|505680|138800|51.1387271345466|-0.490812006290054|Cranleigh Waters/Littlemead Brook|Not discharging|False|2023-03-29T19:30:00|2023-03-29T21:15:00
Leaden Roding|CSSC.1400|TL59171311|559170|213110|51.7939960610683|0.30665020904011|Tributary of River Roding|Not discharging|False|2023-01-11T11:15:00|2023-01-11T12:15:00
Leatherhead|CTCR.1780|TQ14695803|514690|158030|51.3098381934784|-0.355932612771356|River Mole|Not discharging|True|2023-03-30T18:30:00|2023-04-02T23:15:00
Lechlade|CTCR.1797|SU22709933|422700|199330|51.6922673681762|-1.67299524123662|River Leach|Discharging|True|2023-03-31T15:30:00|None
Leeside Crescent|TEMP.2736|TQ243883|524300|188300|51.5798641247996|-0.207506706612499|Decoy Brook|Not discharging|False|2023-01-16T04:15:00|2023-01-16T04:45:00
Leopold Road, Church Path|TEMP.2737|TQ21048487|521040|184870|51.5497468751107|-0.25571103376751|Mitchell Brook|Not discharging|False|2023-03-31T20:00:00|2023-03-31T20:30:00
Lightwater|CNTD.0033|SU93956209|493950|162090|51.3501324223075|-0.652321109262201|Windle Brook|Not discharging|False|2023-04-01T10:30:00|2023-04-01T11:00:00
Lindsay Drive, Falcon Way|TEMP.2739|TQ18378835|518370|188350|51.581588810668|-0.293029285800691|Wealdstone Brook|Not discharging|False|2023-03-31T18:45:00|2023-03-31T20:45:00
Little Compton|TEMP.2721|SP25253044|425250|230440|51.971861827205|-1.63384520068619|Little Compton Stream|Not discharging|True|2023-04-03T07:15:00|2023-04-03T08:15:00
Little Hallingbury|CSSC.0263|TL49441743|549440|217430|51.8354912565001|0.167534121770535|Little Hallingbury Brook|Not discharging|True|2023-04-03T09:15:00|2023-04-03T23:30:00
Little Marlow|CNTD.0058|SU87718696|487710|186960|51.574693489319|-0.735737796218536|River Thames|Not discharging|False|2023-02-27T01:46:00|2023-02-27T01:50:00
Little Milton|TEMP.2725|SP62100056|462100|200560|51.700357419837|-1.10282318917825|Gainsbridge Brook|Not discharging|True|2023-04-03T07:30:00|2023-04-03T11:45:00
Littlemead Ind Estate, Cranleigh|CTCR.1941|TQ04843899|504840|138990|51.140589293343|-0.502759131616374|Tributary of Cranleigh Waters|Not discharging|False|2023-03-31T02:15:00|2023-04-01T14:45:00
Littlemore Low Level|TEMP.1358|SP525029|452500|202900|51.7223730780865|-1.24136745028088|River Thames|Not discharging|False|2023-01-12T17:34:00|2023-01-12T17:40:00
London Bridge|TEMP.2743|TQ32868060|532860|180600|51.5087182276592|-0.086945701388316|River Thames|Offline|False|None|None
London Road, Marlborough|TEMP.1368|SU193691|419300|169100|51.4205877244988|-1.72383222642477|River Kennet|Not discharging|None|None|None
Long Crendon|TEMP.2727|SP69980838|469980|208380|51.769731207604|-0.987249195475866|Crendon Stream|Not discharging|False|2023-01-12T22:15:00|2023-01-12T22:45:00
Long Reach|CNTD.0067|TQ55637692|555630|176920|51.4698481609953|0.239287853723165|River Thames|Not discharging|True|2023-04-02T15:50:00|2023-04-03T01:32:00
Longbridge Road|CANM.0919|TQ4670085800|546700|185800|51.5520215151062|0.11450691792058|Mayes Brook|Not discharging|False|2023-03-31T18:45:00|2023-03-31T23:00:00
Longley Road (1), Tooting High Street|TEMP.2747|TQ27117089|527110|170890|51.4227765769094|-0.173242233622938|River Graveney|Not discharging|False|None|None
Longstone Ave, Drayton Road|TEMP.2749|TQ21048487|521040|184870|51.5497468751107|-0.25571103376751|Mitchell Brook|Not discharging|None|None|None
Low Hall Farm Storm Tanks, Walthamstow|CSBC.0084|TQ36318806|536310|188060|51.5749336991356|-0.03437728430808|Dagenham Brook|Not discharging|False|2023-03-31T23:24:00|2023-03-31T23:28:00
Low Level 1 N, Grosvenor Ditch, Millb|TEMP.2752|TQ30277879|530270|178790|51.4930548760744|-0.124912359798508|River Thames|Not discharging|False|2023-03-31T20:16:00|2023-03-31T23:26:00
Lower Cherwell St, Banbury|CATM.3189|SP46104019|446100|240190|52.058180866553|-1.32903974272086|River Cherwell|Not discharging|False|2022-11-08T11:54:00|2022-11-08T12:04:00
Ludgershall|CSSC.1406|SP66111863|466110|218630|51.8623454392333|-1.04137181221043|Ludgershall Brook|Not discharging|True|2023-04-04T04:30:00|2023-04-04T05:00:00
Luton|TEMP.2735|TL12021814|512020|218140|51.8506239754446|-0.375066563993567|River Lee|Not discharging|False|2023-03-31T21:15:00|2023-03-31T22:00:00
Lyon Park Avenue|TEMP.2754|TQ18368469|518360|184690|51.5486971207264|-0.294404833073083|Wembley Brook|Not discharging|False|None|None
Lytton Road SSO|TEMP.2755|TQ263964|526300|196400|51.6522124761995|-0.175741978572983|Pymmes Brook|Not discharging|False|2023-03-31T21:15:00|2023-03-31T23:00:00
Maidenhead|TEMP.2757|SU895806|489500|180600|51.5172417405303|-0.711530720118985|Maidenhead Ditch|Not discharging|False|2023-02-19T17:00:00|2023-02-19T17:30:00
Manor Drive Stormwater Tanks|CTCR.0519|TQ21086358|521080|163580|51.3583969886561|-0.262414762010537|River Hogsmill|Not discharging|False|2023-03-31T15:15:00|2023-03-31T22:00:00
Manor Farm|TEMP.1450|SP728019|472800|201900|51.7111197309335|-0.947742728511879|Sydenham Stream|Not discharging|None|None|None
Maple Lodge|CNTD.0071|TQ04129237|504120|192370|51.6205312781699|-0.497417967969836|River Colne|Not discharging|True|2023-04-02T12:15:00|2023-04-03T02:30:00
Mapleton Road|TEMP.2790|TQ25657432|525650|174320|51.4539275106722|-0.193013142181294|River Wandle|Not discharging|False|2022-11-06T08:30:00|2022-11-06T09:00:00
Markenfield Road, Guildford|TEMP.2792|SU99275027|499270|150270|51.2429790189559|-0.579237106288691|River Wey|Not discharging|False|None|None
Markyate|CSSC.8549|TL07491541|507490|215410|51.8269775234986|-0.441654908310035|River Ver|Not discharging|False|2023-03-31T19:00:00|2023-03-31T21:30:00
Marlborough|TEMP.2763|SU20126920|420120|169200|51.4214585234676|-1.7120341639883|River Kennet|Discharging|True|2023-04-04T11:00:00|None
Marsh Gibbon|TEMP.2765|SP644225|464400|222500|51.8973351469294|-1.06547952596445|Summerstown Ditch|Not discharging|True|2023-03-22T23:15:00|2023-04-03T12:30:00
Marsh Lane Bridge, Taplow|TEMP.1471|SU918799|491800|179900|51.5105807886093|-0.678574858301036|Boveney Ditch|Not discharging|False|2022-10-27T00:00:00|2022-10-27T02:00:00
Marsworth|TEMP.2766|SP916152|491600|215200|51.8279179780484|-0.672211938251637|River Thame|Not discharging|False|2023-03-31T18:30:00|2023-04-01T02:00:00
Merstham|CTCR.1782|TQ29685212|529680|152120|51.2535095140047|-0.143129236201425|Redhill Brook|Not discharging|False|2023-03-29T21:30:00|2023-04-01T21:30:00
Middle Barton|CTCR.1850|SP44732541|444730|225410|51.9254187918527|-1.35094316207399|River Dorn|Not discharging|False|2023-01-14T14:30:00|2023-01-14T15:30:00
Middleton Cheney|CAWM.0083|SP50614114|450610|241140|52.0663285663134|-1.26312609999404|Washle Brook|Not discharging|False|2023-03-15T02:15:00|2023-03-15T08:00:00
Middleton Stoney|TEMP.2773|SP53812358|453810|223580|51.9081653932219|-1.21919909909026|Gagle Brook|Not discharging|False|2023-03-26T04:15:00|2023-03-26T05:30:00
Midgham|TEMP.2774|SU55676740|455670|167400|51.4029056998068|-1.20109153714889|Kennet & Avon Canal|Not discharging|False|2023-01-16T07:30:00|2023-01-16T08:30:00
Mill Green (Hatfield)|TEMP.2653|TL24750992|524750|209920|51.7740580551141|-0.193299725397729|River Lee|Not discharging|False|2023-04-01T17:15:00|2023-04-01T23:15:00
Millbank, Crawley|TEMP.2797|TQ24503648|524500|136480|51.1140967326724|-0.222731734270072|Ifield Brook|Not discharging|None|None|None
Milton-Under-Wychwood|TEMP.2776|SP274184|427400|218400|51.8635135543172|-1.60350246783669|Littlestock Brook|Discharging|True|2023-03-30T15:30:00|None
Mogden|CNTD.0085|TQ16757550|516750|175500|51.4664363388526|-0.320652943876683|River Thames|Not discharging|False|2023-04-01T11:34:00|2023-04-01T15:30:00
Moreton Pinkney|CNTD.0010|SP57384973|457380|249730|52.14289049133|-1.16293349610795|Ashby Brook|Not discharging|False|2023-03-09T22:15:00|2023-03-09T22:45:00
Moreton-In-Marsh|CTCR.2092|SP20813234|420810|232340|51.9891270319933|-1.69836258718054|River Evenlode|Not discharging|False|2023-03-31T18:00:00|2023-04-01T01:45:00
Moreton-In-Marsh (Primrose Court)|CTCR.2093|SP209322|420900|232200|51.9878649893174|-1.69706045966722|River Evenlode|Discharging|True|2023-03-31T21:00:00|None
Mortimer (Stratfield)|TEMP.2783|SU67466450|467460|164500|51.3755563345794|-1.03217545090237|Foundry Brook|Discharging|True|2023-03-22T05:15:00|None
Mulberry Court, Hall Road|TEMP.2801|TQ38028540|538020|185400|51.5506154129317|-0.0107605624301513|Hennikers Ditch|Not discharging|False|2023-03-31T19:30:00|2023-03-31T20:30:00
Nags Head Lane (Brentwood)|CSSC.0328|TQ56249158|556240|191580|51.6013924319747|0.254563250972918|River Ingrebourne|Not discharging|False|2023-03-31T21:00:00|2023-04-01T22:15:00
Ne Storm Relief Shadwell, King Edward Mem Park|TEMP.2804|TQ356807|535600|180700|51.5089665846074|-0.0474496456900054|River Thames|Not discharging|False|2023-03-31T20:02:00|2023-03-31T21:44:00
New Bedford Road, Luton|CANM.0550|TL08862169|508860|221690|51.8831540475728|-0.41980754056835|River Lee|Not discharging|False|2022-10-23T10:15:00|2022-10-23T11:00:00
New Mill (Eversley Lower Common)|CNTD.0078|SU76006288|476000|162880|51.3599152386597|-0.909847799349265|River Blackwater|Not discharging|True|2023-04-02T23:00:00|2023-04-03T00:45:00
Newbury|TEMP.2805|SU499667|449900|166700|51.397147892013|-1.28413037346355|River Kennet|Not discharging|True|2023-04-02T21:24:00|2023-04-02T21:34:00
Newmans Lane|TEMP.1580|SU726399|472600|139900|51.1537607999382|-0.963327114999141|River Wey|Not discharging|False|2022-12-23T07:30:00|2022-12-23T12:15:00
Nightingale Lane|TEMP.2819|TQ34178020|534170|180200|51.5048144537164|-0.0682327752067629|River Thames|Not discharging|True|2023-04-04T11:04:00|2023-04-04T11:14:00
Norfolk Street|CSAB.0540|TQ30978076|530970|180760|51.510596888856|-0.114104309077561|River Thames|Not discharging|False|2023-03-31T20:14:00|2023-03-31T21:12:00
North Weald|TEMP.2809|TL49570472|549570|204720|51.7212622033373|0.163948279484166|North Weald Brook|Not discharging|True|2023-04-03T19:30:00|2023-04-03T21:30:00
North West Storm Relief|CSAB.0571|TQ23037811|523030|178110|51.4885638903|-0.229382887452997|River Thames|Not discharging|False|2022-12-23T09:38:00|2022-12-23T10:06:00
Northleach|CNTD.0012|SP12331432|412330|214320|51.8273641992828|-1.82249134707637|River Leach|Not discharging|False|2023-04-01T08:15:00|2023-04-01T12:30:00
Northumberland Street|CSAB.0531|TQ30428027|530420|180270|51.5063205446957|-0.122206325905405|River Thames|Not discharging|False|2023-03-31T23:02:00|2023-03-31T23:06:00
Nutter Lane / Preston Drive, Wanstead|CEVR.0138|TQ41628871|541620|188710|51.5794666295262|0.0424589653251607|River Roding|Not discharging|False|2023-03-31T19:15:00|2023-03-31T19:45:00
Oakentrough|CANM.0029|TQ43548382|543540|183820|51.5350422499919|0.0681546293803811|River Roding|Not discharging|False|2023-03-29T19:15:00|2023-03-29T20:30:00
Ockham Road South Foul Sewer Overflow|CTCR.2050|TQ09465388|509460|153880|51.2735652114588|-0.43220723071122|Ockham Brook|Not discharging|None|None|None
Ockley Road|TEMP.1627|TQ095402|509500|140200|51.1505942192547|-0.435805870451924|Cobbler's Brook|Not discharging|False|2022-11-16T20:00:00|2022-11-17T01:30:00
Opposite St Stephens Hall|TEMP.1644|SU623593|462300|159300|51.3293938707888|-1.10720906156301|Bow Brook|Not discharging|True|2023-04-04T05:20:00|2023-04-04T05:24:00
Outside 115 Wentworth Road|CANM.1219|TQ24658813|524650|188130|51.5782591302224|-0.202518485351358|Decoy Brook|Offline|False|None|None
Outside 135 Leeside Crescent (Formerly Brookside Road, Golders Green)|CANM.0917|TQ24278838|524270|188380|51.5805896885962|-0.207911153483757|Decoy Brook|Not discharging|False|2023-01-08T12:15:00|2023-01-08T13:30:00
Oxford|TEMP.2827|SP542022|454200|202200|51.7159184895809|-1.2168679929488|Pottery Stream|Discharging|True|2023-04-04T08:30:00|None
Pangbourne|CTCR.2078|SU64437660|464430|176600|51.4846914900102|-1.07350475465481|Sulham Brook|Offline|False|None|None
Park Town South & West, Luton|CANM.0549|TL10012057|510010|220570|51.8728627059276|-0.403463044809788|River Lee|Not discharging|False|None|None
Passfield|CASM.0309|SU82033444|482030|134440|51.1034023442854|-0.829764106605304|River Wey|Not discharging|None|None|None
Pauls Pier|TEMP.2968|TQ32008081|532000|180810|51.5108067546926|-0.0992519739717447|River Thames|Not discharging|False|2023-03-31T18:46:00|2023-03-31T20:28:00
Pease Pottage|TEMP.2831|TQ261323|526100|132300|51.076178841077|-0.201343941448584|Gatwick Stream|Offline|False|None|None
Penwith Road|TEMP.2841|TQ25887304|525880|173040|51.442373040978|-0.190159629967909|River Wandle|Not discharging|None|None|None
Petersham Road|CSAB.0525|TQ17887437|517880|174370|51.4560463588466|-0.304769382615205|River Thames|Not discharging|False|2023-03-26T17:30:00|2023-03-26T19:15:00
Pinkham Way Storm Sewage O/F, London|CSAC.1088|TQ28679168|528670|191680|51.6092591230251|-0.14323590153983|Bounds Green Brook|Not discharging|False|2022-11-06T09:15:00|2022-11-06T10:45:00
Portsmouth Road, Uxbridge Road|TEMP.2843|TQ17676801|517670|168010|51.3989285090205|-0.309900777511344|River Thames|Offline|False|None|None
Princes Avenue|AB3799WV|TQ41929219|541920|192190|51.6106610314211|0.0481919400388552|River Roding|Offline|False|None|None
Princes Risborough|CTCR.1642|SP79830384|479830|203840|51.7276041011281|-0.845572670632662|Horsenden Stream|Not discharging|False|2023-03-31T22:15:00|2023-04-01T21:00:00
Priory Lane Storm, Mortlake|TEMP.2837|TQ21507552|521500|175520|51.4656172426674|-0.252298403550417|Beverley Brook|Not discharging|False|2023-03-31T20:45:00|2023-03-31T21:45:00
Priory Road, Dartford (Foul)|TEMP.1739|TQ539746|553900|174600|51.4494761707158|0.213391477913595|River Darent|Not discharging|False|2023-03-31T20:45:00|2023-03-31T21:15:00
Prospect Road, Woodford|CANM.0911|TQ4145092450|541450|192450|51.6131154522302|0.0415137410066595|Wells Brook|Not discharging|False|2023-03-31T18:45:00|2023-03-31T20:15:00
Puller Rd/Calvert Rd Storm, Barnet|TEMP.2838|TQ23989716|523980|197160|51.6595583884464|-0.208990334384118|Kitts End Stream|Not discharging|None|None|None
Purton|TEMP.2839|SU08918925|408910|189250|51.6020213704982|-1.87274943850922|Tributary of River Key|Offline|False|None|None
Putney Bridge Street|CSAB.0544|TQ24167564|524160|175640|51.4661189511577|-0.213983191361585|River Thames|Not discharging|False|2023-03-24T17:10:00|2023-03-24T17:22:00
Queen Street|CSAB.0576|TQ27577767|527570|177670|51.4836046715904|-0.164187256695986|River Thames|Not discharging|False|2022-11-06T08:26:00|2022-11-06T08:42:00
Ramsbury|CSSC.2353|SU28857177|428850|171770|51.4441908913161|-1.58627844750447|River Kennet|Not discharging|None|None|None
Ratcliffe Highway Limekiln|TEMP.2864|TQ36018081|536010|180810|51.5098566191026|-0.0415030211048885|River Thames|Not discharging|False|None|None
Ratley|TEMP.2851|SP38434703|438430|247030|52.1202568352003|-1.44013234678916|Tributary of Sor Brook|Not discharging|False|2022-10-23T18:00:00|2022-10-23T19:15:00
Ray Lodge Road (Ray Park 1)|CANM.0717|TQ41869181|541860|191810|51.6072616290386|0.0471723979740889|River Roding|Not discharging|False|2023-03-31T17:30:00|2023-03-31T23:15:00
Reading|CAWM.0942|SU71137072|471130|170720|51.4310280841665|-0.978211410326727|Foundry Brook|Discharging|True|2023-04-04T10:45:00|None
Reading, Blakes Lock|TEMP.1768|SU727734|472700|173400|51.4549224899144|-0.955081940178532|Holy Brook|Not discharging|False|None|None
Reading, Caversham|TEMP.1769|SU728745|472800|174500|51.4647986875547|-0.953416869621476|River Thames|Not discharging|None|None|None
Regent Street|CSAB.0570|TQ30408021|530400|180210|51.505785958249|-0.122516498201897|River Thames|Not discharging|True|2023-04-04T00:54:00|2023-04-04T00:58:00
Ripley|CTCR.2150|TQ04495732|504490|157320|51.3054184430408|-0.502423056563172|River Wey|Not discharging|False|2023-03-31T02:00:00|2023-04-02T01:15:00
River Lane|CTCR.1644|TQ14705710|514700|157100|51.3014772847438|-0.356087897012515|River Mole|Not discharging|False|2023-03-31T19:30:00|2023-03-31T20:15:00
Riverside|CSSA.0364|TQ51528192|551520|181920|51.5158874619806|0.182305673041656|Rainham Creek|Not discharging|False|2023-03-31T19:00:00|2023-04-01T00:15:00
Road A217, Burgh Heath|TEMP.2870|TQ241573|524100|157300|51.301305171686|-0.221248597935795|Unnamed Watercourse|Not discharging|False|2023-03-31T18:15:00|2023-03-31T19:00:00
Road A3, Roehampton Vale|TEMP.2871|TQ21477233|521470|172330|51.4369540053382|-0.253824249513904|Beverley Brook|Not discharging|False|2022-08-25T10:00:00|2022-08-25T10:30:00
Roding Valley|TEMP.1814|TQ435860|543500|186000|51.5546408730942|0.0684665464397075|River Roding|Not discharging|False|None|None
Rotherwick|TEMP.1825|SU718569|471800|156900|51.3066989790042|-0.971362487470225|Rotherwick Brook|Not discharging|False|2023-01-16T04:38:00|2023-01-16T14:56:00
Rowsham|CSSC.1419|SP84871769|484870|217690|51.8513618095264|-0.769234485687555|Rowsham Brook|Not discharging|False|2022-12-18T17:30:00|2022-12-18T21:15:00
Rusper|EPR/QB3796NW|TQ2017536545|520175|136545|51.1156033798683|-0.284468225295529|Tributary of Baldhorns Brook|Not discharging|False|2023-03-31T06:15:00|2023-03-31T11:00:00
Rye Meads|CLCR.0048|TL39481044|539480|210440|51.7752573158125|0.0202671775056767|Tributary of River Stort|Not discharging|False|2023-04-01T12:30:00|2023-04-01T13:45:00
Salfords, Surrey|CNTW.0279|TQ28084665|528080|146650|51.2047103940844|-0.167997137279878|Salfords Stream|Not discharging|False|2022-12-23T09:30:00|2022-12-23T10:45:00
Sandhurst|TEMP.2881|SU836609|483600|160900|51.3410494982524|-0.801182912337404|River Blackwater|Not discharging|False|2023-03-31T18:00:00|2023-04-01T19:30:00
Savoy Street|CSAB.0532|TQ30668063|530660|180630|51.5095003343282|-0.11861697005398|River Thames|Offline|False|None|None
Selborne|CTCR.0742|SU74583378|474580|133780|51.0984847701398|-0.936286108568785|Oakhanger Stream|Discharging|True|2023-04-04T09:45:00|None
Sevenhampton Village|CSSC.1425|SU20929005|420920|190050|51.6088986845884|-1.69929841290903|Tributary of River Cole|Discharging|True|2023-03-22T18:30:00|None
Shabbington|CSSC.1429|SP66240735|466240|207350|51.7609259808227|-1.04163705262231|Shabbington Brook|Not discharging|False|2023-03-31T08:00:00|2023-04-02T00:45:00
Shad, Thames|CSAB.0555|TQ33867994|533860|179940|51.5025514411403|-0.0727952041682806|River Thames|Not discharging|False|2023-01-08T22:45:00|2023-01-08T23:15:00
Shamley Green (Wonersh)|TEMP.2886|TQ02024380|502020|143800|51.1843356282496|-0.541692357521424|Cranleigh Waters|Not discharging|None|None|None
Sherfield-On-Loddon|TEMP.2891|SU67745862|467740|158620|51.3226594755477|-1.02927065426483|Bow Brook|Not discharging|True|2023-03-31T01:15:00|2023-04-03T02:45:00
Shotteswell|TEMP.2892|SP42824576|442820|245760|52.1085178698137|-1.37617819510058|Hanwell Brook|Not discharging|False|2023-03-31T19:30:00|2023-03-31T20:00:00
Shrivenham|TEMP.2893|SU246898|424600|189800|51.6065028906583|-1.64617543482063|Tuckmill Brook|Not discharging|True|2023-04-04T07:30:00|2023-04-04T11:15:00
Shutford|CSSC.1434|SP38834079|438830|240790|52.0641306537041|-1.43499925925425|Shutford Stream|Not discharging|True|2023-04-03T08:30:00|2023-04-03T09:45:00
Silchester|CNTW.0737|SU62306100|462300|161000|51.3446779297077|-1.10691219526559|Silchester Brook|Discharging|True|2023-03-22T08:15:00|None
Sloane Street, Raneleigh Gardens|CSAB.0577|TQ28297785|528290|177850|51.4850595945007|-0.153758586409735|River Thames|Not discharging|True|2023-04-03T10:44:00|2023-04-03T11:28:00
Slough|CNTM.2237|SU94377925|494370|179250|51.5043151223206|-0.64172650357937|Roundmoor Ditch|Offline|False|None|None
Smith Street|CSAB.0578|TQ28107779|528100|177790|51.4845634119113|-0.156515189365375|River Thames|Not discharging|False|None|None
Sonning Common|TEMP.2897|SU717794|471700|179400|51.5089900265054|-0.96825531861925|Groundwater|Not discharging|False|2023-03-31T21:15:00|2023-03-31T23:00:00
South Close, Barnet|CLCR.0177|TQ24889665|524880|196650|51.6547760839088|-0.19616774353199|Tributary of Pymmes Brook|Not discharging|None|None|None
South Ealing Road, W5|TEMP.1929|TQ180790|518000|179000|51.4976337391531|-0.301498075533668|River Brent|Not discharging|False|2022-05-11T09:26:00|2022-05-11T09:34:00
South Leigh|TEMP.2899|SP39460842|439460|208420|51.7730679772413|-1.42950881853179|Limb Brook|Discharging|True|2023-03-22T22:45:00|None
South Moreton|TEMP.2900|SU565883|456500|188300|51.5907265865304|-1.18582104169334|Mill Brook|Discharging|True|2023-03-31T04:45:00|None
South Norwood|CGLR.0019|TQ35176855|535170|168550|51.399885305622|-0.0582806491287871|Chaffinch Brook|Not discharging|False|2023-03-31T21:30:00|2023-03-31T22:15:00
South Park, Ilford|CANM.0918|TQ4515086450|545150|186450|51.5582625534723|0.0924349428812154|Loxford Water|Not discharging|False|2023-03-31T19:00:00|2023-03-31T22:45:00
Spooks Hill, North Holmwood|CTCR.1922|TQ16854750|516850|147500|51.2147556568644|-0.328394047753027|Tanners Brook (Bents Brook)|Not discharging|False|2022-12-23T08:45:00|2022-12-23T10:45:00
SSO, Junction Crane Valley/Bathroadse|TEMP.2904|TQ10057701|510050|177010|51.481349510955|-0.416595815093071|River Crane|Not discharging|False|2023-01-16T18:00:00|2023-01-16T18:30:00
St Andrews Road, Black Horse Lane|TEMP.2937|TQ358900|535800|190000|51.5924896615461|-0.0409824992778378|Dagenham Brook|Not discharging|False|2022-11-16T21:15:00|2022-11-16T21:45:00
St Jamess Road|TEMP.2938|TQ18016896|518010|168960|51.407396244694|-0.304699935218109|River Hogsmill|Not discharging|False|2022-10-23T22:36:00|2022-10-23T23:14:00
Stamford Brook|CSAB.0534|TQ22707831|522700|178310|51.4904329628293|-0.23406401859517|River Thames|Not discharging|False|2022-12-23T08:54:00|2022-12-23T10:14:00
Standlake|TEMP.2906|SP404023|440400|202300|51.7179785278989|-1.41659503358902|River Windrush|Discharging|True|2023-03-31T04:00:00|None
Standon|TEMP.2907|TL39722170|539720|221700|51.8763724048088|0.0282836059921385|River Rib|Not discharging|False|2023-04-01T11:30:00|2023-04-01T14:45:00
Stanford-In-The-Vale|CSSC.2317|SU34429291|434420|192910|51.6339520697662|-1.50407640448506|River Ock|Not discharging|False|2023-03-31T16:00:00|2023-04-01T19:30:00
Stansted Mountfitchet|TEMP.2910|TL50092427|550090|224270|51.8967703890991|0.179930405653083|River Stort|Not discharging|True|2023-04-03T11:30:00|2023-04-04T11:00:00
Stanton Harcourt|TEMP.2912|SP42190601|442190|206010|51.7512021966598|-1.39023713624203|Harcourt Brook|Discharging|True|2023-04-01T00:00:00|None
Stanton St John|TEMP.2913|SP586097|458600|209700|51.7829026688371|-1.15192484005106|Moorbridge Brook|Offline|False|None|None
Stewkley|CSSC.2368|SP84982486|484980|224860|51.9157947126751|-0.765874366043753|Hardwick Brook|Discharging|True|2023-04-04T08:45:00|None
Stone|CSSC.2319|SP78131062|478130|210620|51.7887907797394|-0.86865920434229|Scotsgrove Brook|Discharging|True|2023-03-23T23:30:00|None
Stonebridge Brook|CANM.0907|TQ34478870|534470|188700|51.5811263593408|-0.0606680560346812|Stonebridge Brook|Not discharging|False|2022-11-06T09:15:00|2022-11-06T12:00:00
Stonebridge SSO, Brockham|CSAC.0953|TQ19174964|519170|149640|51.2335107889124|-0.294482526923761|River Mole|Offline|False|None|None
Streatham & Balham Storm Relief|TEMP.2920|TQ271709|527100|170900|51.4228686873615|-0.173382395841293|River Graveney|Not discharging|False|2023-03-31T20:15:00|2023-03-31T22:00:00
Streatham Storm Relief|TEMP.2921|TQ290704|529000|170400|51.417946417599|-0.146252850911639|River Graveney|Not discharging|False|2023-03-31T20:15:00|2023-03-31T22:00:00
Streatham Vale Storm Relief|TEMP.2922|TQ29427007|529420|170070|51.4148851187473|-0.140336648180382|River Graveney|Not discharging|False|2023-03-31T14:15:00|2023-03-31T14:45:00
Sudbury Heights Ave, Allendale Road|TEMP.2944|TQ18018510|518010|185100|51.5524551971606|-0.299312732693112|Wembley Brook|Not discharging|False|None|None
Sunnyside Road|TEMP.2946|TQ446858|544600|185800|51.5525631631872|0.0842396661203093|Loxford Water|Not discharging|False|None|None
SW Storm Relief Sewer, London|CSAB.0556|TQ29557772|529550|177720|51.4836043690183|-0.135669990457189|River Thames|Not discharging|True|2023-03-31T14:54:00|2023-04-04T05:32:00
Swains Road|TEMP.2032|SU599615|459900|161500|51.3494307997456|-1.14128204237731|Silchester Brook|Not discharging|False|2022-11-02T20:45:00|2022-11-02T21:45:00
Swindon (Rodbourne)|CNTD.0017|SU12758601|412750|186010|51.5728165496328|-1.81742280922342|River Ray|Not discharging|True|2023-04-02T12:00:00|2023-04-02T13:15:00
Tackley|CAWM.0638|SP48182044|448180|220440|51.8804504485813|-1.30147021884627|Tributary of River Cherwell|Not discharging|None|None|None
Takeley|TEMP.2948|TL549210|554900|221000|51.8660778987854|0.248312907738481|Pincey Brook|Not discharging|True|2023-03-31T00:45:00|2023-04-02T22:15:00
Takeley - Garnetts|TEMP.2042|TL558216|555800|221600|51.8712178453248|0.261643713525424|Wayletts Ditch|Not discharging|False|2022-11-06T09:30:00|2022-11-06T17:00:00
Taylors Crescent, Cranleigh|TEMP.2966|TQ06723911|506720|139110|51.1413209811235|-0.475860322421601|Cranleigh Waters|Not discharging|False|2023-01-14T10:00:00|2023-01-14T13:45:00
Temple Place Essex Street|TEMP.2583|TQ31128079|531120|180790|51.510831729687|-0.111932912186193|River Thames|Not discharging|False|2023-03-31T20:10:00|2023-03-31T21:32:00
Tetsworth|TEMP.2949|SP68470247|468470|202470|51.7167882271042|-1.01028995312612|Latchford Brook|Not discharging|False|2023-04-01T14:45:00|2023-04-01T20:45:00
Thame|CTCR.1158|SP71150683|471150|206830|51.7556500794609|-0.970613319250424|Lashlake Stream|Not discharging|True|2023-04-02T10:00:00|2023-04-02T23:45:00
The Broadway (Ray Park 2)|CANM.0716|TQ41539102|541530|191020|51.6002459808204|0.0420916625919533|River Roding|Not discharging|False|2022-08-17T15:30:00|2022-08-17T17:45:00
The Willows, North Hinksey Lane|TEMP.2973|SP49510553|449510|205530|51.7462891852513|-1.28427610256189|Seacourt Stream|Not discharging|False|2023-03-31T13:45:00|2023-04-01T23:45:00
Therfield|CATM.3095|TL34273470|534270|234700|51.9945223804245|-0.0457676664922233|River Rib|Not discharging|False|2023-03-31T16:30:00|2023-04-02T04:30:00
Theydon Bois|TEMP.2954|TQ476977|547600|197700|51.6587094922245|0.132482926615862|Brookhouse Brook|Not discharging|False|2023-04-02T09:30:00|2023-04-02T11:45:00
Thornwood|EPR/FB3198EZ|TL477050|547700|205000|51.7242731559697|0.137015057662688|Cripsey Brook|Not discharging|True|2023-04-02T12:45:00|2023-04-02T13:30:00
Tideway CSO (Offline)|EPR.BP3220XF|TQ45488151|545480|181510|51.5137898055291|0.0951523375476308|River Thames|Offline|False|None|None
Tring|TEMP.2961|SP924132|492400|213200|51.8098093715397|-0.661139588301039|Marsworth Reservoir (Grand Union Canal)|Not discharging|None|None|None
Trumpers Way, W7|TEMP.2125|TQ150790|515000|179000|51.498251378964|-0.344696070607113|River Brent|Not discharging|False|2023-03-31T20:16:00|2023-03-31T21:58:00
Trumps Green|TEMP.2126|SP959101|495900|210100|51.7813567149913|-0.611243993933253|River Bulborne|Not discharging|None|None|None
Uffington|TEMP.2979|SU301896|430100|189600|51.6044386527232|-1.56677554788491|Uffington Brook|Discharging|True|2023-04-04T08:45:00|None
Upper Richmond Road, Priests Bridge|TEMP.2982|TQ21507553|521500|175530|51.4657071159749|-0.252294969807224|Beverley Brook|Not discharging|False|2023-03-31T20:30:00|2023-03-31T23:00:00
Vauxhall Motors|TEMP.2984|TL09912073|509910|220730|51.8743203830013|-0.404864098303086|Feeder to River Lee|Not discharging|False|2022-11-23T09:45:00|2022-11-23T10:30:00
Waddesdon|CNTD.0052|SP74881795|474880|217950|51.8551265276163|-0.914186353983153|Fleet Marston Brook|Not discharging|True|2023-03-31T07:00:00|2023-04-03T00:30:00
Wanborough|CSCC.2327|SU20168450|420160|184500|51.5590249877704|-1.71059001865574|Liden Brook|Discharging|True|2023-03-30T22:30:00|None
Wandle Valley|CSAB.0546|TQ25947545|525940|175450|51.4640184839503|-0.188439602626589|River Thames|Not discharging|False|2022-04-06T13:04:00|2022-04-07T18:18:00
Wantage|TEMP.2989|SU407917|440700|191700|51.6226551717489|-1.41348421691023|Letcombe Brook|Not discharging|True|2023-04-04T06:00:00|2023-04-04T09:15:00
Wardington|CTCR.1833|SP49134701|449130|247010|52.1192319254693|-1.28387003231868|Tributary of River Cherwell|Not discharging|False|2023-03-31T18:15:00|2023-03-31T18:45:00
Wargrave|CTCR.2079|SU77637735|477630|177350|51.4897786570145|-0.883276184082253|River Loddon|Not discharging|True|2023-04-03T09:30:00|2023-04-03T10:00:00
Warmington|TEMP.2991|SP41504798|441500|247980|52.1285760425578|-1.39518104734371|Hanwell Brook|Not discharging|False|2023-03-31T15:45:00|2023-03-31T22:30:00
Washwater|TEMP.2994|SU45406270|445400|162700|51.3615606901232|-1.34931817229987|Pound Street Brook|Not discharging|True|2023-04-04T07:15:00|2023-04-04T10:15:00
Water End|TEMP.2184|SU694533|469400|153300|51.2746306562252|-1.00648512621428|River Lyde|Not discharging|False|2023-02-10T18:45:00|2023-02-10T19:15:00
Watery Lane, Startops End|CNTM.0145|SP91781419|491780|214190|51.8188100472153|-0.66986812865803|Tring Bourne|Not discharging|None|None|None
Watlington|TEMP.2997|SU674954|467400|195400|51.6533591610401|-1.02713882727037|Pyrton Stream|Not discharging|False|2022-11-17T14:30:00|2022-11-17T19:30:00
Waverley Lane|CNTM.1423|SU86024602|486020|146020|51.2069216906331|-0.770025212142545|Bourne Stream|Not discharging|False|2023-03-31T02:00:00|2023-04-02T04:45:00
Wealdbridge, North Weald|TEMP.2197|TL510064|551000|206400|51.7359734043317|0.185362454522869|Cripsey Brook|Offline|False|None|None
West End, Essendon|TEMP.2200|TL268086|526800|208600|51.7617357837096|-0.164085112994453|Wood Hill Brook|Not discharging|False|2023-01-14T10:15:00|2023-01-14T20:45:00
West Heath Ramsdell|NPSWQD001561|SU59365837|459360|158370|51.3213463822934|-1.14955567918042|Tributary of Bow Brook|Not discharging|True|2023-04-03T17:00:00|2023-04-03T19:30:00
West Putney S R, Horne Way|TEMP.2986|TQ234762|523400|176200|51.4713178453282|-0.224723157627427|River Thames|Not discharging|None|None|None
West Way, Botley (Syphon)|TEMP.3035|SP48630623|448630|206230|51.7526593584894|-1.29692370599962|Seacourt Stream|Not discharging|False|2023-03-31T16:30:00|2023-04-01T15:00:00
Western PS Low Lever Sewer|CSAB.0538|TQ28647792|528640|177920|51.48560924228|-0.148695232025545|River Thames|Not discharging|False|2023-03-29T19:45:00|2023-03-29T21:45:00
Western Way|TEMP.3036|TQ25369508|525360|195080|51.6405601614143|-0.18979483292522|Dollis Brook|Not discharging|False|2023-03-31T19:30:00|2023-03-31T22:15:00
Weston (Herts)|TEMP.3001|TL27552961|527550|229610|51.9503661484102|-0.145477059067961|Weston Tributary |Not discharging|True|2023-03-31T10:30:00|2023-04-02T23:45:00
Weston-On-The-Green SPS|TEMP.2220|SP537174|453700|217400|51.8526174955248|-1.22175756269684|Gallos Brook|Not discharging|False|None|None
Weston-On-The-Green STW|TEMP.3002|SP53651747|453650|217470|51.8532515999062|-1.22247257727925|Gallos Brook|Not discharging|False|2023-03-31T07:15:00|2023-04-02T03:00:00
Westway Close|TEMP.2223|TQ228687|522800|168700|51.4040435866586|-0.235956013611411|Old Pyl Ditch|Offline|False|None|None
Weybridge|CTCR.0944|TQ06776314|506770|163140|51.3573089145046|-0.46798524766525|River Wey|Discharging|True|2023-03-31T09:15:00|None
Wheatley|CSSC.2332|SP60730515|460730|205150|51.7417714746099|-1.12184550886679|Wheatley Ditch|Not discharging|True|2023-04-03T07:15:00|2023-04-04T00:15:00
White Roding|CSSC.1455|TL56931368|556930|213680|51.7997492921907|0.274454487534053|Tributary of River Roding|Not discharging|True|2023-04-03T21:00:00|2023-04-03T21:30:00
White Waltham|TEMP.3007|SU865777|486500|177700|51.491639415844|-0.755465443894344|Heywood Stream|Not discharging|None|None|None
Whitwell|TEMP.3008|TL19162074|519160|220740|51.8725127787951|-0.270559584065816|River Mimram|Not discharging|False|2022-11-17T00:00:00|2022-11-17T01:15:00
Widford And Wareside|CLCR.0090|TL41671629|541670|216290|51.827271355298|0.0543762450057863|River Ash|Not discharging|False|2023-04-01T08:45:00|2023-04-01T10:45:00
Willingale|CSSC.1456|TL58950707|558950|207070|51.7397964766638|0.300701599674649|Tributary of River Roding|Not discharging|False|2023-01-22T18:30:00|2023-01-22T23:30:00
Windsor|TEMP.3014|SU997750|499700|175000|51.4651992454848|-0.566156631991493|River Thames|Not discharging|True|2023-04-03T23:06:00|2023-04-03T23:14:00
Wingrave|CSSC.2320|SP86491872|486490|218720|51.8603719069683|-0.745463395429434|Tributary of Rowsham Brook|Discharging|True|2023-04-04T06:30:00|None
Winterbourne|TEMP.3016|SU45557208|445550|172080|51.4458845490519|-1.34596249710674|Winterbourne Stream|Not discharging|False|2022-12-13T01:30:00|2022-12-13T10:30:00
Witney|CATM.3134|SP34640841|434640|208410|51.773296127934|-1.49936292597298|Curbridge Ditch|Discharging|True|2023-03-31T03:00:00|None
Woking|CASM.0308|TQ03275752|503270|157520|51.3074386106479|-0.519860440283044|Guiness Ditch|Not discharging|False|2023-03-31T17:00:00|2023-04-01T23:30:00
Wood Street|CSAB.0564|TQ30297922|530290|179220|51.4969145318802|-0.124465826982521|River Thames|Not discharging|False|2023-03-31T20:58:00|2023-03-31T21:38:00
Woodford Halse|CTCR.1853|SP53605213|453600|252130|52.1648445095168|-1.21778616357127|River Cherwell|Not discharging|False|2023-03-31T16:30:00|2023-04-01T00:00:00
Woodstock|CSSC.2321|SP44961780|444960|217800|51.8569842890945|-1.3485882808973|River Glyme|Not discharging|True|2023-03-30T16:15:00|2023-04-04T11:15:00
Worcester Crescent|AB3890DU|TQ41929219|541920|192190|51.6106610314211|0.0481919400388552|River Roding|Not discharging|False|2023-03-31T08:45:00|2023-04-01T13:15:00
Worminghall|CTCR.1975|SP650091|465000|209100|51.7768032455747|-1.05927411171914|Worminghall Brook|Not discharging|True|2023-04-02T23:00:00|2023-04-02T23:30:00
Worple Road, SW19|TEMP.3044|TQ21826989|521820|169890|51.4149497253427|-0.249629511257783|Beverley Brook|Offline|False|None|None
Wynters Brook, Hastingwood|TEMP.2279|TL489078|548900|207800|51.749113331746|0.155572578973027|Shonks Brook|Not discharging|False|2023-03-30T14:15:00|2023-04-01T21:30:00
